{
  "type": "FeatureCollection",
  "features": [
    {
      "type": "Feature",
      "properties": {
        "norad_id": 28890,
        "name": "BEIJING 1",
        "group": "dmc",
        "lat": 53.76351736546538,
        "lon": 109.69968943246855,
        "alt_km": 672.7743793109703,
        "timestamp": "2025-12-19T14:48:35.911022+00:00",
        "meta_object_name": "BEIJING 1",
        "meta_object_id": "2005-043A",
        "meta_epoch": "2025-12-19T06:21:22.348800",
        "meta_mean_motion": 14.63371918,
        "meta_eccentricity": 0.00156323,
        "meta_inclination": 98.2652,
        "meta_ra_of_asc_node": 120.7869,
        "meta_arg_of_pericenter": 122.0118,
        "meta_mean_anomaly": 238.2605,
        "meta_ephemeris_type": 0,
        "meta_classification_type": "U",
        "meta_norad_cat_id": 28890,
        "meta_element_set_no": 999,
        "meta_rev_at_epoch": 7433,
        "meta_bstar": 6.0827842e-05,
        "meta_mean_motion_dot": 2.66e-06,
        "meta_mean_motion_ddot": 0,
        "tle_line1": "1 28890U 05043A   25353.26484200  .00000266  00000+0  60828-4 0  9994",
        "tle_line2": "2 28890  98.2652 120.7869 0015632 122.0118 238.2605 14.63371918 74332"
      },
      "geometry": {
        "type": "Point",
        "coordinates": [
          109.69968943246855,
          53.76351736546538
        ]
      }
    },
    {
      "type": "Feature",
      "properties": {
        "norad_id": 33320,
        "name": "HUANJING 1A (HJ-1A)",
        "group": "dmc",
        "lat": -36.833407496552255,
        "lon": 155.84813877969316,
        "alt_km": 637.5075193955254,
        "timestamp": "2025-12-19T14:48:35.911046+00:00",
        "meta_object_name": "HUANJING 1A (HJ-1A)",
        "meta_object_id": "2008-041A",
        "meta_epoch": "2025-12-19T07:21:30.368736",
        "meta_mean_motion": 14.83413315,
        "meta_eccentricity": 0.00197251,
        "meta_inclination": 97.6534,
        "meta_ra_of_asc_node": 341.3311,
        "meta_arg_of_pericenter": 13.5553,
        "meta_mean_anomaly": 346.6187,
        "meta_ephemeris_type": 0,
        "meta_classification_type": "U",
        "meta_norad_cat_id": 33320,
        "meta_element_set_no": 999,
        "meta_rev_at_epoch": 93173,
        "meta_bstar": 0.00011708039,
        "meta_mean_motion_dot": 9.13e-06,
        "meta_mean_motion_ddot": 0,
        "tle_line1": "1 33320U 08041A   25353.30660149  .00000913  00000+0  11708-3 0  9993",
        "tle_line2": "2 33320  97.6534 341.3311 0019725  13.5553 346.6187 14.83413315931730"
      },
      "geometry": {
        "type": "Point",
        "coordinates": [
          155.84813877969316,
          -36.833407496552255
        ]
      }
    },
    {
      "type": "Feature",
      "properties": {
        "norad_id": 33321,
        "name": "HUANJING 1B (HJ-1B)",
        "group": "dmc",
        "lat": 63.08214572136015,
        "lon": -30.021057975008976,
        "alt_km": 588.0542409758673,
        "timestamp": "2025-12-19T14:48:35.911061+00:00",
        "meta_object_name": "HUANJING 1B (HJ-1B)",
        "meta_object_id": "2008-041B",
        "meta_epoch": "2025-12-19T06:25:34.560768",
        "meta_mean_motion": 14.82837298,
        "meta_eccentricity": 0.00380187,
        "meta_inclination": 97.6394,
        "meta_ra_of_asc_node": 344.9738,
        "meta_arg_of_pericenter": 55.0491,
        "meta_mean_anomaly": 305.4284,
        "meta_ephemeris_type": 0,
        "meta_classification_type": "U",
        "meta_norad_cat_id": 33321,
        "meta_element_set_no": 999,
        "meta_rev_at_epoch": 93174,
        "meta_bstar": 0.00012850277,
        "meta_mean_motion_dot": 1.001e-05,
        "meta_mean_motion_ddot": 0,
        "tle_line1": "1 33321U 08041B   25353.26776112  .00001001  00000+0  12850-3 0  9995",
        "tle_line2": "2 33321  97.6394 344.9738 0038018  55.0491 305.4284 14.82837298931746"
      },
      "geometry": {
        "type": "Point",
        "coordinates": [
          -30.021057975008976,
          63.08214572136015
        ]
      }
    },
    {
      "type": "Feature",
      "properties": {
        "norad_id": 33446,
        "name": "YAOGAN-4",
        "group": "dmc",
        "lat": -27.271789288145214,
        "lon": -72.23621018041824,
        "alt_km": 618.8893117617154,
        "timestamp": "2025-12-19T14:48:35.911074+00:00",
        "meta_object_name": "YAOGAN-4",
        "meta_object_id": "2008-061A",
        "meta_epoch": "2025-12-19T05:12:57.035520",
        "meta_mean_motion": 14.8270017,
        "meta_eccentricity": 0.00131785,
        "meta_inclination": 97.919,
        "meta_ra_of_asc_node": 283.2531,
        "meta_arg_of_pericenter": 300.5796,
        "meta_mean_anomaly": 59.4117,
        "meta_ephemeris_type": 0,
        "meta_classification_type": "U",
        "meta_norad_cat_id": 33446,
        "meta_element_set_no": 999,
        "meta_rev_at_epoch": 91899,
        "meta_bstar": 0.00012404803,
        "meta_mean_motion_dot": 9.48e-06,
        "meta_mean_motion_ddot": 0,
        "tle_line1": "1 33446U 08061A   25353.21732680  .00000948  00000+0  12405-3 0  9997",
        "tle_line2": "2 33446  97.9190 283.2531 0013178 300.5796  59.4117 14.82700170918994"
      },
      "geometry": {
        "type": "Point",
        "coordinates": [
          -72.23621018041824,
          -27.271789288145214
        ]
      }
    },
    {
      "type": "Feature",
      "properties": {
        "norad_id": 35681,
        "name": "DEIMOS-1",
        "group": "dmc",
        "lat": -82.22494470177922,
        "lon": -123.00791756386239,
        "alt_km": 654.3269351991639,
        "timestamp": "2025-12-19T14:48:35.911085+00:00",
        "meta_object_name": "DEIMOS-1",
        "meta_object_id": "2009-041A",
        "meta_epoch": "2025-12-19T07:04:21.552960",
        "meta_mean_motion": 14.74962922,
        "meta_eccentricity": 0.00026177,
        "meta_inclination": 97.7142,
        "meta_ra_of_asc_node": 153.5921,
        "meta_arg_of_pericenter": 69.3038,
        "meta_mean_anomaly": 290.8452,
        "meta_ephemeris_type": 0,
        "meta_classification_type": "U",
        "meta_norad_cat_id": 35681,
        "meta_element_set_no": 999,
        "meta_rev_at_epoch": 88036,
        "meta_bstar": 0.00011016049,
        "meta_mean_motion_dot": 6.93e-06,
        "meta_mean_motion_ddot": 0,
        "tle_line1": "1 35681U 09041A   25353.29469390  .00000693  00000+0  11016-3 0  9996",
        "tle_line2": "2 35681  97.7142 153.5921 0002617  69.3038 290.8452 14.74962922880367"
      },
      "geometry": {
        "type": "Point",
        "coordinates": [
          -123.00791756386239,
          -82.22494470177922
        ]
      }
    },
    {
      "type": "Feature",
      "properties": {
        "norad_id": 35683,
        "name": "UK-DMC 2",
        "group": "dmc",
        "lat": -56.550027773012815,
        "lon": 140.38870694003086,
        "alt_km": 651.1246687376724,
        "timestamp": "2025-12-19T14:48:35.911097+00:00",
        "meta_object_name": "UK-DMC 2",
        "meta_object_id": "2009-041C",
        "meta_epoch": "2025-12-19T06:55:57.413280",
        "meta_mean_motion": 14.75636354,
        "meta_eccentricity": 0.00015023,
        "meta_inclination": 97.8559,
        "meta_ra_of_asc_node": 128.0063,
        "meta_arg_of_pericenter": 93.7166,
        "meta_mean_anomaly": 266.4215,
        "meta_ephemeris_type": 0,
        "meta_classification_type": "U",
        "meta_norad_cat_id": 35683,
        "meta_element_set_no": 999,
        "meta_rev_at_epoch": 88003,
        "meta_bstar": 0.00016297204,
        "meta_mean_motion_dot": 1.063e-05,
        "meta_mean_motion_ddot": 0,
        "tle_line1": "1 35683U 09041C   25353.28885895  .00001063  00000+0  16297-3 0  9997",
        "tle_line2": "2 35683  97.8559 128.0063 0001502  93.7166 266.4215 14.75636354880039"
      },
      "geometry": {
        "type": "Point",
        "coordinates": [
          140.38870694003086,
          -56.550027773012815
        ]
      }
    },
    {
      "type": "Feature",
      "properties": {
        "norad_id": 40715,
        "name": "DMC3-FM1",
        "group": "dmc",
        "lat": -53.58257391132595,
        "lon": 30.03412139990561,
        "alt_km": 617.7012453096968,
        "timestamp": "2025-12-19T14:48:35.911108+00:00",
        "meta_object_name": "DMC3-FM1",
        "meta_object_id": "2015-032A",
        "meta_epoch": "2025-12-19T05:40:29.997984",
        "meta_mean_motion": 14.85449153,
        "meta_eccentricity": 0.00042684,
        "meta_inclination": 97.6692,
        "meta_ra_of_asc_node": 220.1918,
        "meta_arg_of_pericenter": 295.3865,
        "meta_mean_anomaly": 64.6908,
        "meta_ephemeris_type": 0,
        "meta_classification_type": "U",
        "meta_norad_cat_id": 40715,
        "meta_element_set_no": 999,
        "meta_rev_at_epoch": 56319,
        "meta_bstar": 2.467155e-05,
        "meta_mean_motion_dot": 1.61e-06,
        "meta_mean_motion_ddot": 0,
        "tle_line1": "1 40715U 15032A   25353.23645831  .00000161  00000+0  24672-4 0  9990",
        "tle_line2": "2 40715  97.6692 220.1918 0004268 295.3865  64.6908 14.85449153563190"
      },
      "geometry": {
        "type": "Point",
        "coordinates": [
          30.03412139990561,
          -53.58257391132595
        ]
      }
    },
    {
      "type": "Feature",
      "properties": {
        "norad_id": 40716,
        "name": "DMC3-FM2",
        "group": "dmc",
        "lat": 64.75607992302783,
        "lon": 58.625812330642894,
        "alt_km": 609.2228994656516,
        "timestamp": "2025-12-19T14:48:35.911118+00:00",
        "meta_object_name": "DMC3-FM2",
        "meta_object_id": "2015-032B",
        "meta_epoch": "2025-12-19T06:12:53.012160",
        "meta_mean_motion": 14.85452149,
        "meta_eccentricity": 0.0004832,
        "meta_inclination": 97.6749,
        "meta_ra_of_asc_node": 221.6618,
        "meta_arg_of_pericenter": 300.8638,
        "meta_mean_anomaly": 59.2101,
        "meta_ephemeris_type": 0,
        "meta_classification_type": "U",
        "meta_norad_cat_id": 40716,
        "meta_element_set_no": 999,
        "meta_rev_at_epoch": 56319,
        "meta_bstar": 9.3199308e-05,
        "meta_mean_motion_dot": 7.52e-06,
        "meta_mean_motion_ddot": 0,
        "tle_line1": "1 40716U 15032B   25353.25894690  .00000752  00000+0  93199-4 0  9998",
        "tle_line2": "2 40716  97.6749 221.6618 0004832 300.8638  59.2101 14.85452149563198"
      },
      "geometry": {
        "type": "Point",
        "coordinates": [
          58.625812330642894,
          64.75607992302783
        ]
      }
    },
    {
      "type": "Feature",
      "properties": {
        "norad_id": 40717,
        "name": "DMC3-FM3",
        "group": "dmc",
        "lat": -1.84982366421501,
        "lon": -136.10540405652108,
        "alt_km": 613.8571353037551,
        "timestamp": "2025-12-19T14:48:35.911129+00:00",
        "meta_object_name": "DMC3-FM3",
        "meta_object_id": "2015-032C",
        "meta_epoch": "2025-12-19T06:44:05.911008",
        "meta_mean_motion": 14.85441439,
        "meta_eccentricity": 0.00041429,
        "meta_inclination": 97.6806,
        "meta_ra_of_asc_node": 223.3203,
        "meta_arg_of_pericenter": 303.2314,
        "meta_mean_anomaly": 56.8504,
        "meta_ephemeris_type": 0,
        "meta_classification_type": "U",
        "meta_norad_cat_id": 40717,
        "meta_element_set_no": 999,
        "meta_rev_at_epoch": 56320,
        "meta_bstar": 0.00012670108,
        "meta_mean_motion_dot": 1.041e-05,
        "meta_mean_motion_ddot": 0,
        "tle_line1": "1 40717U 15032C   25353.28062397  .00001041  00000+0  12670-3 0  9999",
        "tle_line2": "2 40717  97.6806 223.3203 0004142 303.2314  56.8504 14.85441439563206"
      },
      "geometry": {
        "type": "Point",
        "coordinates": [
          -136.10540405652108,
          -1.84982366421501
        ]
      }
    }
  ]
}